{
  "type": "FeatureCollection",
  "features": [
    {
      "type": "Feature",
      "properties": {
        "norad_id": 30912,
        "name": "FENGYUN 1C DEB",
        "group": "fengyun-1c-debris",
        "lat": -48.52909366436188,
        "lon": 10.856213149561238,
        "alt_km": 646.3087974867303,
        "timestamp": "2025-12-24T07:45:06.479163+00:00",
        "meta_object_name": "FENGYUN 1C DEB",
        "meta_object_id": "1999-025AZA",
        "meta_epoch": "2025-12-22T19:15:46.690272",
        "meta_mean_motion": 14.89610691,
        "meta_eccentricity": 0.00592701,
        "meta_inclination": 98.9955,
        "meta_ra_of_asc_node": 199.4541,
        "meta_arg_of_pericenter": 66.0213,
        "meta_mean_anomaly": 294.7191,
        "meta_ephemeris_type": 0,
        "meta_classification_type": "U",
        "meta_norad_cat_id": 30912,
        "meta_element_set_no": 999,
        "meta_rev_at_epoch": 99554,
        "meta_bstar": 0.0013426196,
        "meta_mean_motion_dot": 0.00013201,
        "meta_mean_motion_ddot": 0,
        "tle_line1": "1 30912U 99025AZA 25356.80262373  .00013201  00000+0  13426-2 0  9996",
        "tle_line2": "2 30912  98.9955 199.4541 0059270  66.0213 294.7191 14.89610691995546"
      },
      "geometry": {
        "type": "Point",
        "coordinates": [
          10.856213149561238,
          -48.52909366436188
        ]
      }
    },
    {
      "type": "Feature",
      "properties": {
        "norad_id": 30913,
        "name": "FENGYUN 1C DEB",
        "group": "fengyun-1c-debris",
        "lat": 64.19438825100441,
        "lon": -136.588304225052,
        "alt_km": 841.2352915970678,
        "timestamp": "2025-12-24T07:45:06.479173+00:00",
        "meta_object_name": "FENGYUN 1C DEB",
        "meta_object_id": "1999-025AZB",
        "meta_epoch": "2025-12-23T07:16:51.190464",
        "meta_mean_motion": 14.04967913,
        "meta_eccentricity": 0.0048842,
        "meta_inclination": 98.7447,
        "meta_ra_of_asc_node": 23.8681,
        "meta_arg_of_pericenter": 152.15,
        "meta_mean_anomaly": 208.2298,
        "meta_ephemeris_type": 0,
        "meta_classification_type": "U",
        "meta_norad_cat_id": 30913,
        "meta_element_set_no": 999,
        "meta_rev_at_epoch": 96066,
        "meta_bstar": 0.00065561477,
        "meta_mean_motion_dot": 1.024e-05,
        "meta_mean_motion_ddot": 0,
        "tle_line1": "1 30913U 99025AZB 25357.30337026  .00001024  00000+0  65561-3 0  9999",
        "tle_line2": "2 30913  98.7447  23.8681 0048842 152.1500 208.2298 14.04967913960667"
      },
      "geometry": {
        "type": "Point",
        "coordinates": [
          -136.588304225052,
          64.19438825100441
        ]
      }
    },
    {
      "type": "Feature",
      "properties": {
        "norad_id": 30914,
        "name": "FENGYUN 1C DEB",
        "group": "fengyun-1c-debris",
        "lat": -53.054872085858534,
        "lon": -104.95797425296468,
        "alt_km": 867.6011161000661,
        "timestamp": "2025-12-24T07:45:06.479183+00:00",
        "meta_object_name": "FENGYUN 1C DEB",
        "meta_object_id": "1999-025AZC",
        "meta_epoch": "2025-12-23T09:59:19.017312",
        "meta_mean_motion": 13.08882678,
        "meta_eccentricity": 0.05169044,
        "meta_inclination": 99.9832,
        "meta_ra_of_asc_node": 240.6486,
        "meta_arg_of_pericenter": 330.1456,
        "meta_mean_anomaly": 27.1068,
        "meta_ephemeris_type": 0,
        "meta_classification_type": "U",
        "meta_norad_cat_id": 30914,
        "meta_element_set_no": 999,
        "meta_rev_at_epoch": 59215,
        "meta_bstar": 0.0026040863,
        "meta_mean_motion_dot": 1.674e-05,
        "meta_mean_motion_ddot": 0,
        "tle_line1": "1 30914U 99025AZC 25357.41619233  .00001674  00000+0  26041-2 0  9995",
        "tle_line2": "2 30914  99.9832 240.6486 0516904 330.1456  27.1068 13.08882678592153"
      },
      "geometry": {
        "type": "Point",
        "coordinates": [
          -104.95797425296468,
          -53.054872085858534
        ]
      }
    },
    {
      "type": "Feature",
      "properties": {
        "norad_id": 30915,
        "name": "FENGYUN 1C DEB",
        "group": "fengyun-1c-debris",
        "lat": -4.861254468979656,
        "lon": -106.05259690423976,
        "alt_km": 786.3839084861756,
        "timestamp": "2025-12-24T07:45:06.479195+00:00",
        "meta_object_name": "FENGYUN 1C DEB",
        "meta_object_id": "1999-025AZD",
        "meta_epoch": "2025-12-23T03:55:51.795552",
        "meta_mean_motion": 14.25111657,
        "meta_eccentricity": 0.005326,
        "meta_inclination": 98.9411,
        "meta_ra_of_asc_node": 73.5339,
        "meta_arg_of_pericenter": 139.1471,
        "meta_mean_anomaly": 221.3719,
        "meta_ephemeris_type": 0,
        "meta_classification_type": "U",
        "meta_norad_cat_id": 30915,
        "meta_element_set_no": 999,
        "meta_rev_at_epoch": 96661,
        "meta_bstar": 0.0015659215,
        "meta_mean_motion_dot": 3.684e-05,
        "meta_mean_motion_ddot": 0,
        "tle_line1": "1 30915U 99025AZD 25357.16379393  .00003684  00000+0  15659-2 0  9994",
        "tle_line2": "2 30915  98.9411  73.5339 0053260 139.1471 221.3719 14.25111657966610"
      },
      "geometry": {
        "type": "Point",
        "coordinates": [
          -106.05259690423976,
          -4.861254468979656
        ]
      }
    },
    {
      "type": "Feature",
      "properties": {
        "norad_id": 30916,
        "name": "FENGYUN 1C DEB",
        "group": "fengyun-1c-debris",
        "lat": -80.45688451984526,
        "lon": 129.17880400667664,
        "alt_km": 839.5128547007998,
        "timestamp": "2025-12-24T07:45:06.479205+00:00",
        "meta_object_name": "FENGYUN 1C DEB",
        "meta_object_id": "1999-025AZE",
        "meta_epoch": "2025-12-23T03:19:28.828704",
        "meta_mean_motion": 14.08837398,
        "meta_eccentricity": 0.00632304,
        "meta_inclination": 99.001,
        "meta_ra_of_asc_node": 57.467,
        "meta_arg_of_pericenter": 229.0741,
        "meta_mean_anomaly": 159.5004,
        "meta_ephemeris_type": 0,
        "meta_classification_type": "U",
        "meta_norad_cat_id": 30916,
        "meta_element_set_no": 999,
        "meta_rev_at_epoch": 95990,
        "meta_bstar": 0.001097525,
        "meta_mean_motion_dot": 1.885e-05,
        "meta_mean_motion_ddot": 0,
        "tle_line1": "1 30916U 99025AZE 25357.13852811  .00001885  00000+0  10975-2 0  9990",
        "tle_line2": "2 30916  99.0010  57.4670 0063230 229.0741 159.5004 14.08837398959905"
      },
      "geometry": {
        "type": "Point",
        "coordinates": [
          129.17880400667664,
          -80.45688451984526
        ]
      }
    },
    {
      "type": "Feature",
      "properties": {
        "norad_id": 30918,
        "name": "FENGYUN 1C DEB",
        "group": "fengyun-1c-debris",
        "lat": -38.19415389761125,
        "lon": -77.12922812133743,
        "alt_km": 976.14493937917,
        "timestamp": "2025-12-24T07:45:06.479218+00:00",
        "meta_object_name": "FENGYUN 1C DEB",
        "meta_object_id": "1999-025AZG",
        "meta_epoch": "2025-12-23T19:23:57.178752",
        "meta_mean_motion": 13.96854434,
        "meta_eccentricity": 0.01571218,
        "meta_inclination": 98.4166,
        "meta_ra_of_asc_node": 109.0886,
        "meta_arg_of_pericenter": 94.6413,
        "meta_mean_anomaly": 55.6962,
        "meta_ephemeris_type": 0,
        "meta_classification_type": "U",
        "meta_norad_cat_id": 30918,
        "meta_element_set_no": 999,
        "meta_rev_at_epoch": 95207,
        "meta_bstar": 0.00069575463,
        "meta_mean_motion_dot": 1.037e-05,
        "meta_mean_motion_ddot": 0,
        "tle_line1": "1 30918U 99025AZG 25357.80830068  .00001037  00000+0  69575-3 0  9996",
        "tle_line2": "2 30918  98.4166 109.0886 0157121  94.6413  55.6962 13.96854434952076"
      },
      "geometry": {
        "type": "Point",
        "coordinates": [
          -77.12922812133743,
          -38.19415389761125
        ]
      }
    },
    {
      "type": "Feature",
      "properties": {
        "norad_id": 30920,
        "name": "FENGYUN 1C DEB",
        "group": "fengyun-1c-debris",
        "lat": -48.7900907766318,
        "lon": -50.684193509022705,
        "alt_km": 918.3640610232414,
        "timestamp": "2025-12-24T07:45:06.479228+00:00",
        "meta_object_name": "FENGYUN 1C DEB",
        "meta_object_id": "1999-025AZJ",
        "meta_epoch": "2025-12-23T03:33:33.779232",
        "meta_mean_motion": 14.1674921,
        "meta_eccentricity": 0.01082214,
        "meta_inclination": 98.9184,
        "meta_ra_of_asc_node": 138.4677,
        "meta_arg_of_pericenter": 68.222,
        "meta_mean_anomaly": 293.0429,
        "meta_ephemeris_type": 0,
        "meta_classification_type": "U",
        "meta_norad_cat_id": 30920,
        "meta_element_set_no": 999,
        "meta_rev_at_epoch": 95241,
        "meta_bstar": 0.0027226281,
        "meta_mean_motion_dot": 5.726e-05,
        "meta_mean_motion_ddot": 0,
        "tle_line1": "1 30920U 99025AZJ 25357.14830763  .00005726  00000+0  27226-2 0  9993",
        "tle_line2": "2 30920  98.9184 138.4677 0108221  68.2220 293.0429 14.16749210952410"
      },
      "geometry": {
        "type": "Point",
        "coordinates": [
          -50.684193509022705,
          -48.7900907766318
        ]
      }
    }
  ]
}